NORAD_CAT_ID,OBJECT_NAME,OBJECT_TYPE,EPOCH,MEAN_MOTION,ECCENTRICITY,INCLINATION,RA_OF_ASC_NODE,ARG_OF_PERICENTER,MEAN_ANOMALY,BSTAR,MEAN_MOTION_DOT,MEAN_MOTION_DDOT,TLE_LINE0,TLE_LINE1,TLE_LINE2,SEMIMAJOR_AXIS,PERIOD,APOGEE,PERIGEE,DECAYED
50837.0,STARLINK-3318,PAYLOAD,2022-05-18 06:00:00,15.08806439,0.0001624,53.2175,295.5283,41.8031,83.5977,0.0032623,0.00051967,0.0,0 STARLINK-3318,1 50837U 22001AL  22138.25001157  .00051967  00000-0  32623-2 0  9991,2 50837  53.2175 295.5283 0001624  41.8031  83.5977 15.08806439 21547,6917.983,95.44,540.971,538.724,0.0
50837.0,STARLINK-3318,PAYLOAD,2022-05-18 14:00:01,15.08859967,0.0001733,53.2177,294.0327,42.3857,94.5809,-0.0016059999999999,-0.00025771,0.0,0 STARLINK-3318,1 50837U 22001AL  22138.58334491 -.00025771  00000-0 -16060-2 0  9990,2 50837  53.2177 294.0327 0001733  42.3857  94.5809 15.08859967  1307,6917.819,95.436,540.883,538.486,0.0
50837.0,STARLINK-3318,PAYLOAD,2022-05-18 22:00:00,15.08841272,0.0001881,53.2175,292.5374,36.3233,112.2557,-0.0014164,-0.00022761,0.0,0 STARLINK-3318,1 50837U 22001AL  22138.91667824 -.00022761  00000-0 -14164-2 0  9995,2 50837  53.2175 292.5374 0001881  36.3233 112.2557 15.08841272 21642,6917.877,95.437,541.043,538.44,0.0
50837.0,STARLINK-3318,PAYLOAD,2022-05-19 14:00:01,15.0883468,0.0001867,53.218,289.5439,42.5559,129.2311,-0.00051679,-8.502e-05,0.0,0 STARLINK-3318,1 50837U 22001AL  22139.58335648 -.00008502  00000-0 -51679-3 0  9995,2 50837  53.2180 289.5439 0001867  42.5559 129.2311 15.08834680  1302,6917.897,95.438,541.053,538.47,0.0
50837.0,STARLINK-3318,PAYLOAD,2022-05-19 22:00:00,15.08834782,0.0001973,53.2178,288.0486,35.9993,147.3152,6.7559e-05,7.87e-06,0.0,0 STARLINK-3318,1 50837U 22001AL  22139.91667824  .00000787  00000-0  67559-4 0  9996,2 50837  53.2178 288.0486 0001973  35.9993 147.3152 15.08834782 21793,6917.896,95.438,541.126,538.396,0.0
50837.0,STARLINK-3318,PAYLOAD,2022-05-20 14:00:01,15.08868025,0.0001852,53.2182,285.0554,38.0132,168.4796,-0.0041623999999999,-0.00065978,0.0,0 STARLINK-3318,1 50837U 22001AL  22140.58334491 -.00065978  00000-0 -41624-2 0  9990,2 50837  53.2182 285.0554 0001852  38.0132 168.4796 15.08868025  1306,6917.795,95.436,540.941,538.379,0.0
50837.0,STARLINK-3318,PAYLOAD,2022-05-20 22:00:00,15.08819727,0.0002003,53.2179,283.5597,33.9089,184.1951,0.0010208,0.00015986,0.0,0 STARLINK-3318,1 50837U 22001AL  22140.91667824  .00015986  00000-0  10208-2 0  9992,2 50837  53.2179 283.5597 0002003  33.9089 184.1951 15.08819727  1309,6917.941999999999,95.439,541.193,538.422,0.0
50837.0,STARLINK-3318,PAYLOAD,2022-05-21 06:00:00,15.08819261,0.000184,53.2181,282.0617,39.8167,189.8726,0.0014253,0.00022456,0.0,0 STARLINK-3318,1 50837U 22001AL  22141.25001157  .00022456  00000-0  14253-2 0  9995,2 50837  53.2181 282.0617 0001840  39.8167 189.8726 15.08819261 21991,6917.944,95.439,541.082,538.536,0.0
50837.0,STARLINK-3318,PAYLOAD,2022-05-21 14:00:01,15.08833865,0.0002038,53.2175,280.5656,37.8871,203.407,0.00034393,5.189e-05,0.0,0 STARLINK-3318,1 50837U 22001AL  22141.58335648  .00005189  00000-0  34393-3 0  9998,2 50837  53.2175 280.5656 0002038  37.8871 203.4070 15.08833865 22048,6917.899,95.438,541.174,538.354,0.0
50837.0,STARLINK-3318,PAYLOAD,2022-05-21 22:00:00,15.08840768,0.0002058,53.2177,279.0709,34.9623,217.9128,-0.00019379,-3.371e-05,0.0,0 STARLINK-3318,1 50837U 22001AL  22141.91667824 -.00003371  00000-0 -19379-3 0  9999,2 50837  53.2177 279.0709 0002058  34.9623 217.9128 15.08840768 22108,6917.878000000002,95.438,541.1669999999998,538.319,0.0
50837.0,STARLINK-3318,PAYLOAD,2022-05-22 14:00:01,15.0884242,0.0001986,53.2178,276.078,38.87300000000001,237.1689,-0.0027049,-0.00043083,0.0,0 STARLINK-3318,1 50837U 22001AL  22142.58334491 -.00043083  00000-0 -27049-2 0  9990,2 50837  53.2178 276.0780 0001986  38.8730 237.1689 15.08842420  1308,6917.873000000001,95.437,541.112,538.364,0.0
50837.0,STARLINK-3318,PAYLOAD,2022-05-22 22:00:01,15.08825975,0.0002031,53.2172,274.5818,34.0648,253.6295,0.00092526,0.00014463,0.0,0 STARLINK-3318,1 50837U 22001AL  22142.91668981  .00014463  00000-0  92526-3 0  9992,2 50837  53.2172 274.5818 0002031  34.0648 253.6295 15.08825975 22254,6917.9230000000025,95.438,541.193,538.383,0.0
50837.0,STARLINK-3318,PAYLOAD,2022-05-23 14:00:01,15.08861357,0.000194,53.2173,271.5891,36.9912,273.8012,-0.001812,-0.00029028,0.0,0 STARLINK-3318,1 50837U 22001AL  22143.58334491 -.00029028  00000-0 -18120-2 0  9994,2 50837  53.2173 271.5891 0001940  36.9912 273.8012 15.08861357  1304,6917.815,95.436,541.0219999999998,538.3380000000002,0.0
50837.0,STARLINK-3318,PAYLOAD,2022-05-23 22:00:01,15.08851242,0.0001978,53.2167,270.0927,33.148,289.3248,-0.0001272,-2.313e-05,0.0,0 STARLINK-3318,1 50837U 22001AL  22143.91668981 -.00002313  00000-0 -12720-3 0  9994,2 50837  53.2167 270.0927 0001978  33.1480 289.3248 15.08851242  1306,6917.846,95.437,541.0790000000002,538.3430000000002,0.0
50837.0,STARLINK-3318,PAYLOAD,2022-05-24 06:00:02,15.08835232,0.000181,53.2168,268.5947,38.8344,295.2473,0.0011374,0.00017858,0.0,0 STARLINK-3318,1 50837U 22001AL  22144.25002315  .00017858  00000-0  11374-2 0  9996,2 50837  53.2168 268.5947 0001810  38.8344 295.2473 15.08835232 22453,6917.895,95.438,541.012,538.508,0.0
50837.0,STARLINK-3318,PAYLOAD,2022-05-24 14:03:51,15.08845934,0.0001836,53.219,267.0859,45.0359,315.0782,6.4842e-06,-1.85e-06,0.0,0 STARLINK-3318,1 50837U 22001AL  22144.58601206 -.00000185  00000-0  64842-5 0  9993,2 50837  53.2190 267.0859 0001836  45.0359 315.0782 15.08845934 21305,6917.861999999999,95.437,540.997,538.457,0.0
50837.0,STARLINK-3318,PAYLOAD,2022-05-24 22:00:00,15.08837276,0.0002043,53.2164,265.6035,34.8599,322.3331,-0.0036926,-0.00058576,0.0,0 STARLINK-3318,1 50837U 22001AL  22144.91667824 -.00058576  00000-0 -36926-2 0  9995,2 50837  53.2164 265.6035 0002043  34.8599 322.3331 15.08837276 22558,6917.889,95.438,541.1669999999998,538.34,0.0
50837.0,STARLINK-3318,PAYLOAD,2022-05-25 14:00:01,15.08851046,0.0002154,53.2167,262.6109,40.3012,340.0204,-0.0010323,-0.00016685,0.0,0 STARLINK-3318,1 50837U 22001AL  22145.58334491 -.00016685  00000-0 -10323-2 0  9998,2 50837  53.2167 262.6109 0002154  40.3012 340.0204 15.08851046 22653,6917.847,95.437,541.202,538.222,0.0
50837.0,STARLINK-3318,PAYLOAD,2022-05-25 20:16:11,15.08844709,0.0002039,53.2191,261.4361,41.387,318.7276,2.476300000000001e-05,1.06e-06,0.0,0 STARLINK-3318,1 50837U 22001AL  22145.84457947  .00000106  00000-0  24763-4 0  9993,2 50837  53.2191 261.4361 0002039  41.3870 318.7276 15.08844709 21492,6917.866,95.437,541.1419999999998,538.32,0.0
50837.0,STARLINK-3318,PAYLOAD,2022-05-26 12:10:03,15.08841474,0.0002146,53.2189,258.4636,41.1204,318.995,9.9561e-06,-1.3e-06,0.0,0 STARLINK-3318,1 50837U 22001AL  22146.50698097 -.00000130  00000-0  99561-5 0  9997,2 50837  53.2189 258.4636 0002146  41.1204 318.9950 15.08841474 22799,6917.876,95.437,541.225,538.256,0.0
50837.0,STARLINK-3318,PAYLOAD,2022-05-26 13:45:26,15.08845788,0.0001856,53.2199,258.163,51.7717,308.3442,-1.9715e-05,-6.02e-06,0.0,0 STARLINK-3318,1 50837U 22001AL  22146.57321824 -.00000602  00000-0 -19715-4 0  9992,2 50837  53.2199 258.1630 0001856  51.7717 308.3442 15.08845788 21604,6917.863,95.437,541.012,538.444,0.0
50837.0,STARLINK-3318,PAYLOAD,2022-05-26 22:00:00,15.08846872,0.0002113,53.2171,256.6249,34.3318,32.361999999999995,-0.00087055,-0.00014119,0.0,0 STARLINK-3318,1 50837U 22001AL  22146.91667824 -.00014119  00000-0 -87055-3 0  9992,2 50837  53.2171 256.6249 0002113  34.3318  32.3620 15.08846872  1306,6917.859,95.437,541.186,538.263,0.0
50837.0,STARLINK-3318,PAYLOAD,2022-05-27 13:36:13,15.08841421,0.0002105,53.2181,253.7059,37.0797,323.034,0.0001053,1.388e-05,0.0,0 STARLINK-3318,1 50837U 22001AL  22147.56681987  .00001388  00000-0  10530-3 0  9996,2 50837  53.2181 253.7059 0002105  37.0797 323.0340 15.08841421 21751,6917.876,95.437,541.197,538.285,0.0
50837.0,STARLINK-3318,PAYLOAD,2022-05-27 16:00:00,15.08813056,0.0002149,53.2177,253.2588,32.629,150.1683,0.0023817,0.00037793,0.0,0 STARLINK-3318,1 50837U 22001AL  22147.66667824  .00037793  00000-0  23817-2 0  9991,2 50837  53.2177 253.2588 0002149  32.6290 150.1683 15.08813056 22961,6917.9630000000025,95.439,541.314,538.341,0.0
50837.0,STARLINK-3318,PAYLOAD,2022-05-27 22:00:01,15.08851508,0.0002087,53.2177,252.1357,32.5367,69.0006,-0.0010998,-0.00017755,0.0,0 STARLINK-3318,1 50837U 22001AL  22147.91668981 -.00017755  00000-0 -10998-2 0  9998,2 50837  53.2177 252.1357 0002087  32.5367  69.0006 15.08851508  1304,6917.845,95.437,541.154,538.266,0.0
50837.0,STARLINK-3318,PAYLOAD,2022-05-28 13:26:59,15.08851922,0.0002089,53.2177,249.246,37.7407,322.3731,6.6759e-05,7.75e-06,0.0,0 STARLINK-3318,1 50837U 22001AL  22148.56041316  .00000775  00000-0  66759-4 0  9997,2 50837  53.2177 249.2460 0002089  37.7407 322.3731 15.08851922 21908,6917.844,95.437,541.154,538.264,0.0
50837.0,STARLINK-3318,PAYLOAD,2022-05-28 14:00:01,15.08848774,0.0002122,53.2181,249.1437,31.7452,92.9544,-0.00080288,-0.00013047,0.0,0 STARLINK-3318,1 50837U 22001AL  22148.58334491 -.00013047  00000-0 -80288-3 0  9998,2 50837  53.2181 249.1437 0002122  31.7452  92.9544 15.08848774 23105,6917.854,95.437,541.187,538.251,0.0
50837.0,STARLINK-3318,PAYLOAD,2022-05-28 18:13:09,15.08849382,0.0002105,53.2178,248.3533,39.1158,320.9986,4.6929e-05,4.59e-06,0.0,0 STARLINK-3318,1 50837U 22001AL  22148.75913406  .00000459  00000-0  46929-4 0  9992,2 50837  53.2178 248.3533 0002105  39.1158 320.9986 15.08849382 23138,6917.852,95.437,541.173,538.261,0.0
50837.0,STARLINK-3318,PAYLOAD,2022-05-29 14:00:01,15.08831181,0.0002164,53.2183,244.6549,32.8885,126.6234,-0.0025455,-0.00040564,0.0,0 STARLINK-3318,1 50837U 22001AL  22149.58334491 -.00040564  00000-0 -25455-2 0  9997,2 50837  53.2183 244.6549 0002164  32.8885 126.6234 15.08831181 23250,6917.906999999997,95.438,541.269,538.275,0.0
